[
    {
        "Altitude(m)": 556376.4988410489,
        "Argument of Periapsis(deg)": 0.0,
        "Eccentricity": 0.0,
        "Inclination(deg)": 53.0,
        "Latitude(deg)": 37.24572798294133,
        "Longitude(deg)": 160.29523071293724,
        "Mean Anomaly(deg)": 130.90910000000005,
        "RAAN(deg)": 114.99999999999999,
        "Satellite Name": "Starlink Shell 1 514",
        "Satellite Number": 514,
        "Semi-Major Axis(m)": 6931778.249405717,
        "Time(s)": 0
    },
    {
        "Altitude(m)": 556293.3689130964,
        "Argument of Periapsis(deg)": 0.00034857847951123687,
        "Eccentricity": 0.0,
        "Inclination(deg)": 53.0,
        "Latitude(deg)": 36.83150421848076,
        "Longitude(deg)": 160.84369165057686,
        "Mean Anomaly(deg)": 131.53593120355674,
        "RAAN(deg)": 114.99948122992254,
        "Satellite Name": "Starlink Shell 1 514",
        "Satellite Number": 514,
        "Semi-Major Axis(m)": 6931778.249405717,
        "Time(s)": 10
    },
    {
        "Altitude(m)": 556210.4351271348,
        "Argument of Periapsis(deg)": 0.0006971569590224737,
        "Eccentricity": 0.0,
        "Inclination(deg)": 53.0,
        "Latitude(deg)": 36.41435736354802,
        "Longitude(deg)": 161.3858119160691,
        "Mean Anomaly(deg)": 132.16276240711346,
        "RAAN(deg)": 114.99896245984505,
        "Satellite Name": "Starlink Shell 1 514",
        "Satellite Number": 514,
        "Semi-Major Axis(m)": 6931778.249405717,
        "Time(s)": 20
    },
    {
        "Altitude(m)": 556127.7530418515,
        "Argument of Periapsis(deg)": 0.0010457354385337105,
        "Eccentricity": 0.0,
        "Inclination(deg)": 53.0,
        "Latitude(deg)": 35.99436102495422,
        "Longitude(deg)": 161.9217112887072,
        "Mean Anomaly(deg)": 132.78959361067012,
        "RAAN(deg)": 114.99844368976758,
        "Satellite Name": "Starlink Shell 1 514",
        "Satellite Number": 514,
        "Semi-Major Axis(m)": 6931778.249405717,
        "Time(s)": 30
    },
    {
        "Altitude(m)": 556045.378296873,
        "Argument of Periapsis(deg)": 0.0013943139180449475,
        "Eccentricity": 0.0,
        "Inclination(deg)": 53.0,
        "Latitude(deg)": 35.57158716970857,
        "Longitude(deg)": 162.45150962305212,
        "Mean Anomaly(deg)": 133.41642481422684,
        "RAAN(deg)": 114.9979249196901,
        "Satellite Name": "Starlink Shell 1 514",
        "Satellite Number": 514,
        "Semi-Major Axis(m)": 6931778.249405717,
        "Time(s)": 40
    },
    {
        "Altitude(m)": 555963.3665841626,
        "Argument of Periapsis(deg)": 0.0017428923975561844,
        "Eccentricity": 0.0,
        "Inclination(deg)": 53.0,
        "Latitude(deg)": 35.1461061548227,
        "Longitude(deg)": 162.9753257260431,
        "Mean Anomaly(deg)": 134.0432560177836,
        "RAAN(deg)": 114.99740614961263,
        "Satellite Name": "Starlink Shell 1 514",
        "Satellite Number": 514,
        "Semi-Major Axis(m)": 6931778.249405717,
        "Time(s)": 50
    },
    {
        "Altitude(m)": 555881.773619295,
        "Argument of Periapsis(deg)": 0.002091470877067421,
        "Eccentricity": 0.0,
        "Inclination(deg)": 53.0,
        "Latitude(deg)": 34.717986757940864,
        "Longitude(deg)": 163.49327775727392,
        "Mean Anomaly(deg)": 134.6700872213403,
        "RAAN(deg)": 114.99688737953515,
        "Satellite Name": "Starlink Shell 1 514",
        "Satellite Number": 514,
        "Semi-Major Axis(m)": 6931778.249405717,
        "Time(s)": 60
    },
    {
        "Altitude(m)": 555800.6551127193,
        "Argument of Periapsis(deg)": 0.0024400493565786582,
        "Eccentricity": 0.0,
        "Inclination(deg)": 53.0,
        "Latitude(deg)": 34.28729620865346,
        "Longitude(deg)": 164.00548363898787,
        "Mean Anomaly(deg)": 135.29691842489703,
        "RAAN(deg)": 114.9963686094577,
        "Satellite Name": "Starlink Shell 1 514",
        "Satellite Number": 514,
        "Semi-Major Axis(m)": 6931778.249405717,
        "Time(s)": 70
    },
    {
        "Altitude(m)": 555720.0667409566,
        "Argument of Periapsis(deg)": 0.002788627836089895,
        "Eccentricity": 0.0,
        "Inclination(deg)": 53.0,
        "Latitude(deg)": 33.85410022036247,
        "Longitude(deg)": 164.51205996236214,
        "Mean Anomaly(deg)": 135.92374962845372,
        "RAAN(deg)": 114.99584983938021,
        "Satellite Name": "Starlink Shell 1 514",
        "Satellite Number": 514,
        "Semi-Major Axis(m)": 6931778.249405717,
        "Time(s)": 80
    },
    {
        "Altitude(m)": 555640.0641177631,
        "Argument of Periapsis(deg)": 0.0031372063156011316,
        "Eccentricity": 0.0,
        "Inclination(deg)": 53.0,
        "Latitude(deg)": 33.418463022570414,
        "Longitude(deg)": 165.0131224152935,
        "Mean Anomaly(deg)": 136.55058083201044,
        "RAAN(deg)": 114.99533106930275,
        "Satellite Name": "Starlink Shell 1 514",
        "Satellite Number": 514,
        "Semi-Major Axis(m)": 6931778.249405717,
        "Time(s)": 90
    },
    {
        "Altitude(m)": 555560.7027652916,
        "Argument of Periapsis(deg)": 0.0034857847951123688,
        "Eccentricity": 0.0,
        "Inclination(deg)": 53.0,
        "Latitude(deg)": 32.98044739348379,
        "Longitude(deg)": 165.50878621828952,
        "Mean Anomaly(deg)": 137.17741203556716,
        "RAAN(deg)": 114.99481229922527,
        "Satellite Name": "Starlink Shell 1 514",
        "Satellite Number": 514,
        "Semi-Major Axis(m)": 6931778.249405717,
        "Time(s)": 100
    },
    {
        "Altitude(m)": 555482.038085251,
        "Argument of Periapsis(deg)": 0.003834363274623606,
        "Eccentricity": 0.0,
        "Inclination(deg)": 53.0,
        "Latitude(deg)": 32.54011469283008,
        "Longitude(deg)": 165.99916505509304,
        "Mean Anomaly(deg)": 137.8042432391239,
        "RAAN(deg)": 114.99429352914778,
        "Satellite Name": "Starlink Shell 1 514",
        "Satellite Number": 514,
        "Semi-Major Axis(m)": 6931778.249405717,
        "Time(s)": 110
    },
    {
        "Altitude(m)": 555404.1253300672,
        "Argument of Periapsis(deg)": 0.004182941754134842,
        "Eccentricity": 0.0,
        "Inclination(deg)": 53.0,
        "Latitude(deg)": 32.097524894790425,
        "Longitude(deg)": 166.4843715233072,
        "Mean Anomaly(deg)": 138.43107444268057,
        "RAAN(deg)": 114.99377475907032,
        "Satellite Name": "Starlink Shell 1 514",
        "Satellite Number": 514,
        "Semi-Major Axis(m)": 6931778.249405717,
        "Time(s)": 120
    },
    {
        "Altitude(m)": 555327.0195740778,
        "Argument of Periapsis(deg)": 0.004531520233646079,
        "Eccentricity": 0.0,
        "Inclination(deg)": 53.0,
        "Latitude(deg)": 31.65273662096554,
        "Longitude(deg)": 166.96451759168622,
        "Mean Anomaly(deg)": 139.05790564623732,
        "RAAN(deg)": 114.99325598899287,
        "Satellite Name": "Starlink Shell 1 514",
        "Satellite Number": 514,
        "Semi-Major Axis(m)": 6931778.249405717,
        "Time(s)": 130
    },
    {
        "Altitude(m)": 555250.7756847674,
        "Argument of Periapsis(deg)": 0.0048800987131573164,
        "Eccentricity": 0.0,
        "Inclination(deg)": 53.0,
        "Latitude(deg)": 31.205807173301302,
        "Longitude(deg)": 167.4397135507799,
        "Mean Anomaly(deg)": 139.68473684979398,
        "RAAN(deg)": 114.99273721891538,
        "Satellite Name": "Starlink Shell 1 514",
        "Satellite Number": 514,
        "Semi-Major Axis(m)": 6931778.249405717,
        "Time(s)": 140
    },
    {
        "Altitude(m)": 555175.4482940816,
        "Argument of Periapsis(deg)": 0.005228677192668553,
        "Eccentricity": 0.0,
        "Inclination(deg)": 53.0,
        "Latitude(deg)": 30.756792566899385,
        "Longitude(deg)": 167.9100684822588,
        "Mean Anomaly(deg)": 140.31156805335073,
        "RAAN(deg)": 114.9922184488379,
        "Satellite Name": "Starlink Shell 1 514",
        "Satellite Number": 514,
        "Semi-Major Axis(m)": 6931778.249405717,
        "Time(s)": 150
    },
    {
        "Altitude(m)": 555101.0917697622,
        "Argument of Periapsis(deg)": 0.00557725567217979,
        "Eccentricity": 0.0,
        "Inclination(deg)": 53.0,
        "Latitude(deg)": 30.305747562654272,
        "Longitude(deg)": 168.37569073364867,
        "Mean Anomaly(deg)": 140.93839925690747,
        "RAAN(deg)": 114.99169967876044,
        "Satellite Name": "Starlink Shell 1 514",
        "Satellite Number": 514,
        "Semi-Major Axis(m)": 6931778.249405717,
        "Time(s)": 160
    },
    {
        "Altitude(m)": 555027.7601868137,
        "Argument of Periapsis(deg)": 0.0059258341516910265,
        "Eccentricity": 0.0,
        "Inclination(deg)": 53.0,
        "Latitude(deg)": 29.852725699663296,
        "Longitude(deg)": 168.83668688522062,
        "Mean Anomaly(deg)": 141.56523046046414,
        "RAAN(deg)": 114.99118090868295,
        "Satellite Name": "Starlink Shell 1 514",
        "Satellite Number": 514,
        "Semi-Major Axis(m)": 6931778.249405717,
        "Time(s)": 170
    },
    {
        "Altitude(m)": 554955.5072990541,
        "Argument of Periapsis(deg)": 0.006274412631202263,
        "Eccentricity": 0.0,
        "Inclination(deg)": 53.0,
        "Latitude(deg)": 29.397779327356115,
        "Longitude(deg)": 169.29316223442547,
        "Mean Anomaly(deg)": 142.1920616640209,
        "RAAN(deg)": 114.99066213860549,
        "Satellite Name": "Starlink Shell 1 514",
        "Satellite Number": 514,
        "Semi-Major Axis(m)": 6931778.249405717,
        "Time(s)": 180
    }
]